XRISM                   
1 57800U 23137A   23311.13848023  .00009241  00000+0  74702-3 0  9993
2 57800  31.0051 349.2906 0010400 161.0431 199.0593 14.98518699  9179
